{"spkid": "50289952", "covariance": {"labels": ["e", "q", "tp", "node", "peri", "i"], "elements": [{"label": "e", "title": "eccentricity", "value": ".5294273242346128", "units": null, "sigma": 4.75719550614053e-07, "name": "e"}, {"label": "q", "sigma": 7.26523294216785e-07, "name": "q", "title": "perihelion distance", "value": ".7189335159249849", "units": "au"}, {"value": "2459200.573416174682", "title": "time of perihelion passage", "units": "TDB", "sigma": 1.02203018354029e-05, "name": "tp", "label": "tp"}, {"label": "node", "title": "longitude of the ascending node", "value": ".06701509109538768", "units": "deg", "sigma": 7.23257563269117e-05, "name": "om"}, {"sigma": 0.000136930300826941, "name": "w", "value": "74.29211157834153", "title": "argument of perihelion", "units": "deg", "label": "peri"}, {"label": "i", "title": "inclination", "value": "16.83809362156706", "units": "deg", "name": "i", "sigma": 6.21282681975733e-05}], "data": [["2.263090908364361E-13", "-3.456212510462686E-13", "-3.680539566939212E-14", "-2.866168695568228E-11", "6.352126882828969E-11", "2.627757019956745E-11"], ["-3.456212510462686E-13", "5.278360970396087E-13", "5.433063392732837E-14", "4.376564339124818E-11", "-9.700560152861401E-11", "-4.012800666011507E-11"], ["-3.680539566939212E-14", "5.433063392732837E-14", "1.044545696067406E-10", "3.254731387647317E-10", "-2.118898955171864E-10", "-1.493456792707787E-10"], ["-2.866168695568228E-11", "4.376564339124818E-11", "3.254731387647317E-10", "5.231015028259802E-9", "-9.235070823196279E-9", "-4.343317849858355E-9"], ["6.352126882828969E-11", "-9.700560152861401E-11", "-2.118898955171864E-10", "-9.235070823196279E-9", "1.87499072845566E-8", "8.186682655956992E-9"], ["2.627757019956745E-11", "-4.012800666011507E-11", "-1.493456792707787E-10", "-4.343317849858355E-9", "8.186682655956992E-9", "3.859921709229598E-9"]], "epoch": "2459452.5"}, "elements": [{"name": "e", "sigma": "4.7533E-7", "units": null, "title": "eccentricity", "value": ".529181767877187", "label": "e"}, {"label": "a", "name": "a", "sigma": "4.5174E-9", "units": "au", "title": "semi-major axis", "value": "1.526684628882254"}, {"title": "perihelion distance", "value": ".7187909579794155", "units": "au", "name": "q", "sigma": "7.2641E-7", "label": "q"}, {"title": "inclination; angle with respect to x-y ecliptic plane", "value": "16.85071309745955", "units": "deg", "name": "i", "sigma": "6.22E-5", "label": "i"}, {"sigma": "7.233E-5", "name": "om", "value": ".02802741872517366", "title": "longitude of the ascending node", "units": "deg", "label": "node"}, {"name": "w", "sigma": ".00013692", "units": "deg", "title": "argument of perihelion", "value": "74.36701529604053", "label": "peri"}, {"title": "mean anomaly", "value": "324.5138982345809", "units": "deg", "sigma": "7.4041E-6", "name": "ma", "label": "M"}, {"label": "tp", "units": "TDB", "title": "time of perihelion passage", "value": "2461268.416957007512", "sigma": "1.4419E-5", "name": "tp"}, {"units": "d", "value": "689.0050838587947", "title": "sidereal orbital period", "name": "per", "sigma": "3.0581E-6", "label": "period"}, {"sigma": "2.3191E-9", "name": "n", "title": "mean motion", "value": ".5224925162871203", "units": "deg/d", "label": "n"}, {"label": "Q", "value": "2.334578299785092", "title": "aphelion distance", "units": "au", "sigma": "6.908E-9", "name": "ad"}], "epoch": "2461200.5"}